#cP2023  6 16  0  0  0.00000000      96 ORBIT IGS20 HLM  IGS
## 2266 432000.00000000   900.00000000 60111 0.0000000000000
+   32   G01G02G03G04G05G06G07G08G09G10G11G12G13G14G15G16G17
+        G18G19G20G21G22G23G24G25G26G27G28G29G30G31G32  0  0
+          0  0  0  0  0  0  0  0  0  0  0  0  0  0  0  0  0
+          0  0  0  0  0  0  0  0  0  0  0  0  0  0  0  0  0
+          0  0  0  0  0  0  0  0  0  0  0  0  0  0  0  0  0
++         2  2  2  2  2  2  2  2  1  2  2  2  2  2  2  2  2
++         2  2  2  2  2  2  2  2  2  2  2  2  2  2  2  0  0
++         0  0  0  0  0  0  0  0  0  0  0  0  0  0  0  0  0
++         0  0  0  0  0  0  0  0  0  0  0  0  0  0  0  0  0
++         0  0  0  0  0  0  0  0  0  0  0  0  0  0  0  0  0
%c G  cc GPS ccc cccc cccc cccc cccc ccccc ccccc ccccc ccccc
%c cc cc ccc ccc cccc cccc cccc cccc ccccc ccccc ccccc ccccc
%f  1.2500000  1.025000000  0.00000000000  0.000000000000000
%f  0.0000000  0.000000000  0.00000000000  0.000000000000000
%i    0    0    0    0      0      0      0      0         0
%i    0    0    0    0      0      0      0      0         0
/* RAPID ORBIT COMBINATION FROM WEIGHTED AVERAGE OF:        
/* cod emr esa gfz grg jpl ngs sio usn whu                  
/* REFERENCED TO IGS TIME (IGST) AND TO WEIGHTED MEAN POLE: 
/* PCV:IGS20_2233 OL/AL:FES2014b NONE     Y  ORB:CMB CLK:CMB
*  2023  6 16  6 45  0.00000000
PG01 -15828.248916 -13748.035592 -16854.951642    178.098670  5  7  4  93       
PG02 -10540.116870 -14065.956717 -19450.695378   -585.331619  6  7  5  97       
PG03 -12939.563335 -22611.430177   5355.457253   -268.678241  5  7  5  97       
PG04  -8172.946366 -13432.026019  21403.416235     69.639011  4  7  1 110       
PG05   3485.427224  24229.837153   9982.473460   -131.295357  4  9  7  86       
PG06 -21704.139309   6124.845525  14167.923053    584.763195  3  2  6  96       
PG07 -25644.195799  -6845.455839   4342.852378    151.006546  4  5  5  94       
PG08   1655.133945 -21056.038969 -15933.284799   -127.632102  7  7  2 100       
PG09 -15856.594073  -3497.761184  20952.192486   -134.634360  4  5  3 109       
PG10  14327.078493  -3767.049195 -21881.923990    -41.363131  3  7  5  96       
PG11  -7726.476464  13626.310620  21452.204047   -237.475398  5  6  4  92       
PG12   9663.182009  24648.016500   2331.940492   -389.183835  2  7  5  78       
PG13 -10651.602105  21357.354420 -11608.229318    534.649768  5  7  5  86       
PG14 -16010.489869    454.968993 -21192.847936     92.178881  5  6  4 100       
PG15   1785.415948  21120.521149 -16310.962393     49.302539  8  7  4  82       
PG16   2206.863735 -22858.919148  12634.844091   -490.975853  6  5  4  88       
PG17 -20761.521298  11404.847776 -11695.830172    718.507803  3  4    108       
PG18  26222.430930   4697.430707    680.186668   -309.479107  6  6  6  65       
PG19 -20434.203959  15937.797275  -5218.180954    331.232385  5  4  3  91       
PG20  -2689.706122  19775.178235  17648.838478    427.746154  4  7  8 105       
PG21  -7871.694767 -14653.748636 -20350.140472    153.059774  7  6  5  98       
PG22  18602.634336 -18754.310678  -1281.316073    498.606827  6 10  4  95       
PG23  17326.599599   9295.728206 -17925.872773     33.656596  6  6  5  96       
PG24  12067.475943  14740.170131 -19026.833166   -226.489403  5  6  8  83       
PG25  16473.882663  16745.789597  12333.753256    450.112637  4  5  3  80       
PG26   9457.745223 -14409.901476  20007.416625    238.925064  4  6  5  87       
PG27  11514.285312 -22708.580527  -7019.701349     15.539130  6  6  5  94       
PG28  22750.002700  -6155.090730  12222.991329     83.308694  6  5  6  72       
PG29  13842.807979   6559.672339  21654.736987   -602.941522  6  7  5  98       
PG30 -25958.648809    642.660631  -6097.253243   -510.716138  4  5  4  93       
PG31  13559.590054 -11787.634533  19519.600417   -218.262744  4  7  5  88       
PG32  19854.012630 -14069.415859 -10225.851411   -501.261384  2  5     96       
*  2023  6 16  7  0  0.00000000
PG01 -13882.974238 -13579.189259 -18618.536767    178.096621  4  7  4  91       
PG02  -8154.868447 -14092.035935 -20509.026963   -585.328274  6  7  5  95       
PG03 -12951.667718 -23112.200821   2516.115810   -268.665962  5  7  5  97       
PG04  -6632.170926 -15281.735461  20672.808648     69.648350  4  7  2 107       
PG05   2708.569671  23152.448891  12444.534834   -131.296522  4  8  7  98       
PG06 -23148.437228   5819.118827  11812.888584    584.761351  2  2  6  95       
PG07 -25030.648829  -7012.537510   7050.718928    150.997480  4  5  4  95       
PG08   2799.276226 -22340.674392 -13845.312118   -127.634457  7  7  1  96       
PG09 -14498.132733  -5530.737902  21485.768025   -134.626346  4  5  3 100       
PG10  15329.597267  -1462.952552 -21504.939461    -41.364464  3  7  5  87       
PG11 -10097.292265  13182.745642  20728.447485   -237.488934  5  5  3  89       
PG12   9485.908113  24853.257763   -526.537083   -389.188329  2  7  5  93       
PG13 -11615.498070  22044.709383  -9065.049750    534.654589  5  7  5  98       
PG14 -16844.018260  -1784.280569 -20478.706859     92.190039  5  6  5  94       
PG15    775.628196  22505.705897 -14341.296957     49.305725  7  7  4  93       
PG16   2943.695983 -21382.054529  14864.278257   -490.972447  6  5  5  84       
PG17 -19923.217487  10114.248227 -14015.970320    718.508974  3  4  1  93       
PG18  25958.162221   4870.575313   3538.858674   -309.492595  6  6  5  71       
PG19 -20110.165498  15239.486881  -7981.949128    331.237046  4  3  2  79       
PG20  -3962.161498  18104.517716  19125.504164    427.744571  5  6  8  97       
PG21  -5402.922388 -14635.947470 -21057.562371    153.059301  7  5  5  93       
PG22  18566.068056 -18308.554709  -4127.720384    498.612172  6 10  4  96       
PG23  18044.176192  11102.310467 -16111.725129     33.659871  7  6  5  88       
PG24   9894.070346  14808.983129 -20176.495232   -226.501137  5  6  8  70       
PG25  16810.558813  18030.488474   9914.023795    450.114932  5  4  4  81       
PG26  10657.146511 -12358.623619  20788.355227    238.924258  4  5  4  88       
PG27  12086.796523 -23060.973426  -4224.492484     15.532222  6  6  5  98       
PG28  23991.115413  -5842.441922   9759.116318     83.309347  6  5  6  56       
PG29  12230.734841   8472.590661  21950.135473   -602.942828  6  6  5  95       
PG30 -26472.983513    279.251488  -3378.406580   -510.713957  4  5  5  87       
PG31  15703.334908 -11387.216370  18151.431699   -218.263535  4  7  5  93       
PG32  19264.648555 -12841.769187 -12656.274025   -501.269017  2  5     93       
*  2023  6 16  7 15  0.00000000
PG01 -11751.707736 -13511.549863 -20073.801955    178.094512  3  7  4 107       
PG02  -5669.950649 -14245.513667 -21199.156166   -585.324942  5  7  5 110       
PG03 -12844.364682 -23322.739691   -366.293255   -268.653600  5  7  5 103       
PG04  -5248.307747 -17125.810898  19586.060159     69.657647  4  7  2 107       
PG05   1741.815804  21884.147783  14689.105055   -131.297854  4  8  7 103       
PG06 -24330.381050   5611.566748   9256.184534    584.759499     2  5  93       
PG07 -24133.947317  -7193.173099   9642.225369    150.988458  5  5  4 102       
PG08   3747.952170 -23468.387690 -11515.603910   -127.638106  6  6    110       
PG09 -13224.525998  -7664.597359  21647.263857   -134.618307  4  4  4 106       
PG10  16425.738606    722.465162 -20753.289937    -41.365600  2  6  4  87       
PG11 -12386.946693  12875.069350  19647.992304   -237.502464  5  4  3  91       
PG12   9194.849658  24770.177696  -3376.024131   -389.192319  3  7  5  93       
PG13 -12349.347210  22556.684613  -6365.080256    534.659154  5  7  4  95       
PG14 -17745.674359  -3886.494004 -19412.808832     92.201199  5  6  6 105       
PG15    -72.571529  23727.976402 -12128.644201     49.308978  7  7  4  73       
PG16   3846.600405 -19721.462763  16827.452432   -490.968977  5  6  5  92       
PG17 -19006.162116   8573.877398 -16089.789445    718.510211  3  5  2  94       
PG18  25384.887397   5036.606271   6337.213912   -309.506058  6  6  6  85       
PG19 -19630.743513  14288.446238 -10606.874585    331.241748  4  3  2  87       
PG20  -5407.017765  16380.932749  20275.704093    427.742554  5  6  8 103       
PG21  -2866.768911 -14747.601291 -21387.849773    153.059031  7  5  5 110       
PG22  18359.131665 -17604.300367  -6901.737091    498.617776  5 10  4 115       
PG23  18752.404508  12672.873276 -14022.057752     33.663207  7  7  5  91       
PG24   7615.722827  14988.823175 -20992.390831   -226.512875  5  6  8  68       
PG25  17081.149396  19042.532042   7323.831940    450.117215  5  4  4  82       
PG26  11985.483260 -10310.518203  21206.234828    238.923507  3  6  4  85       
PG27  12468.336097 -23169.563011  -1355.084171     15.525291  6  5  5 105       
PG28  24958.123594  -5599.267335   7127.101130     83.309974  7  5  5  59       
PG29  10717.272455  10480.714010  21866.036071   -602.943663  6  6  6  98       
PG30 -26696.387527    -39.225068   -602.236024   -510.711823  4  5  5  89       
PG31  17688.746457 -11111.080687  16471.085579   -218.263929  4  7  5  99       
PG32  18597.602355 -11361.120197 -14864.545278   -501.276663  2  4     99       
EOF
